KAZEOSAT 1              
1 39731U 14024A   26122.92138796  .00000094  00000+0  41579-4 0  9994
2 39731  98.3221 196.4906 0001516  96.7465 263.3897 14.42061188632032
ALOS-2                  
1 39766U 14029A   26122.96040832  .00001794  00000+0  24694-3 0  9990
2 39766  97.9214 220.7707 0001651  85.0677 275.0723 14.79486011644894
KAZEOSAT 2              
1 40010U 14033A   26122.96306060  .00000524  00000+0  66560-4 0  9996
2 40010  97.5437 324.9585 0010046 105.2598 254.9729 14.85415583642249
HODOYOSHI-4             
1 40011U 14033B   26122.98158821  .00001453  00000+0  16300-3 0  9997
2 40011  97.5451 309.9898 0025145  94.9505 265.4584 14.88019768642080
DEIMOS-2                
1 40013U 14033D   26122.89703100  .00001590  00000+0  15588-3 0  9994
2 40013  97.5896 358.9674 0002371  90.5595 269.5897 14.93601162630965
HODOYOSHI-3             
1 40015U 14033F   26122.91497963  .00001447  00000+0  17289-3 0  9997
2 40015  97.6377 287.7917 0033881 141.7817 218.5810 14.85289081640904
SPOT 7                  
1 40053U 14034A   26122.90968075  .00000438  00000+0  98724-4 0  9999
2 40053  98.0657 186.5622 0001471  78.8766 281.2600 14.60918034630525
SKYSAT-B                
1 40072U 14037D   26122.86819274  .00001496  00000+0  17007-3 0  9993
2 40072  98.3808  79.2640 0006926  69.8212 290.3748 14.87907209639222
WORLDVIEW-3 (WV-3)      
1 40115U 14048A   26122.95395167  .00000901  00000+0  11200-3 0  9992
2 40115  97.8575 198.4112 0002922  97.9910 262.1636 14.84945983635195
GAOFEN-2                
1 40118U 14049A   26122.97286735  .00000291  00000+0  44562-4 0  9998
2 40118  98.0137 187.2178 0008067  29.5801 330.5866 14.80848462632540
YAOGAN-21               
1 40143U 14053A   26122.85229700  .00007544  00000+0  29836-3 0  9991
2 40143  97.1513 165.0469 0006534 247.3573 112.6976 15.25719495648042
YAOGAN-22               
1 40275U 14063A   26122.93530280 -.00000051  00000+0 -11715-4 0  9991
2 40275 100.7656 273.4677 0005752 293.5523  66.4983 13.15529820553868
ASNARO                  
1 40298U 14070A   26122.92021789  .00007364  00000+0  35060-3 0  9992
2 40298  97.3463 200.2478 0002342 323.3996  36.7079 15.19432992637133
YAOGAN-24               
1 40310U 14072A   26122.93885575  .00000971  00000+0  14790-3 0  9995
2 40310  98.1417 259.9116 0015026  52.0416 308.2148 14.76164497617048
CBERS 4                 
1 40336U 14079A   26122.93991987 -.00000076  00000+0 -11869-4 0  9998
2 40336  98.3385 181.1876 0001583 124.4758 235.6578 14.35546346597462
YAOGAN-26               
1 40362U 14088A   26122.90236432  .00027599  00000+0  57427-3 0  9997
2 40362  97.0654 124.2338 0003945 177.3819 182.7452 15.45584483630700
SMAP                    
1 40376U 15003A   26122.95178585  .00000457  00000+0  97490-4 0  9998
2 40376  98.1291 130.6846 0001641  73.3905 286.7477 14.63398867601002
KOMPSAT-3A              
1 40536U 15014A   26122.94309918  .00033209  00000+0  51699-3 0  9994
2 40536  97.6893 111.0739 0057717 344.1712  15.7733 15.51879641614793
SENTINEL-2A             
1 40697U 15028A   26122.96991541  .00000054  00000+0  37149-4 0  9995
2 40697  98.5625 198.4632 0001254  86.1912 273.9414 14.30825413567262
GAOFEN-8                
1 40701U 15030A   26122.94845153  .00019608  00000+0  42590-3 0  9999
2 40701  97.6921 313.6582 0008878   5.8389 354.2960 15.44363104604460
CARBONITE 1 (CBNT-1)    
1 40718U 15032D   26122.92430425  .00003361  00000+0  41436-3 0  9996
2 40718  97.6491 302.8948 0016060  84.0880 276.2165 14.83450553582634
YAOGAN-27               
1 40878U 15040A   26122.94820161  .00000079  00000+0  32031-3 0  9998
2 40878 100.1137 111.2980 0007818 323.8119  36.2465 13.16067911511711
GAOFEN-9 01             
1 40894U 15047A   26122.91858572  .00000901  00000+0  11713-3 0  9995
2 40894  97.6321 160.6629 0025865 289.7441  70.0984 14.82801018573484
YAOGAN-28               
1 41026U 15064A   26122.97937655  .00007128  00000+0  27256-3 0  9995
2 41026  97.3013 262.1994 0010496 359.2212   0.9009 15.26846450583785
YAOGAN-29               
1 41038U 15069A   26122.97359181  .00000747  00000+0  98455-4 0  9995
2 41038  98.0060 151.5287 0002206 128.7641 231.3770 14.83048679563927
KENT RIDGE 1            
1 41167U 15077B   26122.97396631  .00004538  00000+0  15632-3 0  9995
2 41167  14.9797 242.1624 0008358 321.3218  38.6506 15.22859888574193
GAOFEN-4                
1 41194U 15083A   26122.95631291 -.00000327  00000+0  00000+0 0  9996
2 41194   0.3921  82.8269 0003163 128.2834  99.7355  1.00271541 38079
JASON-3                 
1 41240U 16002A   26122.95409843 -.00000020  00000+0  16740-3 0  9998
2 41240  66.0416 220.9319 0008130 274.4000  85.6089 12.87626531481427
SENTINEL-3A             
1 41335U 16011A   26122.91265339  .00000120  00000+0  67777-4 0  9996
2 41335  98.6266 190.9412 0001008 101.7410 258.3884 14.26733302531608
ZIYUAN 3-02 (ZY 3-02)   
1 41556U 16033A   26122.93836501  .00006326  00000+0  28467-3 0  9998
2 41556  97.3844 199.5759 0014183  93.8407 266.4451 15.21353846551109
CARTOSAT-2C             
1 41599U 16040A   26122.94372770  .00003589  00000+0  17317-3 0  9997
2 41599  97.4515 183.5336 0007975 292.8872  67.1521 15.19299971546848
SKYSAT-C1               
1 41601U 16040C   26122.80600316  .00009345  00000+0  27263-3 0  9993
2 41601  96.9600 157.0024 0003191 149.9020 210.2408 15.35536774550904
LAPAN-A3                
1 41603U 16040E   26122.95492858  .00004266  00000+0  13679-3 0  9994
2 41603  97.1488 120.5993 0010619 167.3302 192.8210 15.32813665547886
GAOFEN-3                
1 41727U 16049A   26122.98821471 -.00000060  00000+0 -50067-5 0  9994
2 41727  98.4023 131.4545 0001000  69.1339 290.9958 14.42227233512138
SKYSAT-C4               
1 41771U 16058B   26122.81969130  .00017232  00000+0  34043-3 0  9991
2 41771  96.9204 146.5313 0003431  87.4222 272.7422 15.47189084538459
SKYSAT-C5               
1 41772U 16058C   26122.83696643  .00008367  00000+0  25797-3 0  9995
2 41772  97.0506 165.5126 0004961  96.5958 263.5850 15.33818666536794
SKYSAT-C2               
1 41773U 16058D   26122.56045963  .00011803  00000+0  28762-3 0  9993
2 41773  97.0200 146.4009 0002930 175.5203 184.6071 15.41044481538020
SKYSAT-C3               
1 41774U 16058E   26122.61017901  .00020768  00000+0  36309-3 0  9997
2 41774  96.9071 155.2577 0002809 101.1068 259.0501 15.50662830539044
ALSAT-1B                
1 41785U 16059C   26122.84013644  .00000211  00000+0  40964-4 0  9999
2 41785  97.7764 133.5600 0009881  21.0482 339.1131 14.72238881513901
PATHFINDER 1            
1 41787U 16059E   26122.93455088  .00000744  00000+0  13850-3 0  9997
2 41787  97.8175 124.2542 0028284 353.6861   6.3984 14.67608199513079
SCATSAT 1               
1 41790U 16059H   26122.89971017  .00001323  00000+0  18023-3 0  9992
2 41790  98.1216 186.1959 0055400  35.3760 325.1106 14.79428754 94896
GOKTURK 1A              
1 41875U 16073A   26122.89397304  .00000665  00000+0  13948-3 0  9992
2 41875  98.1303  18.2676 0001424  83.2796 276.8568 14.62799917502203
RESOURCESAT-2A          
1 41877U 16074A   26122.95561251  .00000136  00000+0  82129-4 0  9997
2 41877  98.7540 196.8262 0001969 177.1385 182.9803 14.21602427487877
CARTOSAT-2D             
1 41948U 17008A   26122.91060100  .00004656  00000+0  22353-3 0  9990
2 41948  97.4139 183.0518 0005251  54.8447 305.3279 15.19332361510708
SENTINEL-2B             
1 42063U 17013A   26122.96272084  .00000041  00000+0  32373-4 0  9994
2 42063  98.5651 198.3750 0001236  90.2507 269.8818 14.30816062478179
CARTOSAT-2E             
1 42767U 17036C   26122.92794821  .00003047  00000+0  14785-3 0  9999
2 42767  97.4305 183.4665 0004419 100.1779 259.9954 15.19230363491271
FORMOSAT-5              
1 42920U 17049A   26122.95054684  .00000198  00000+0  61335-4 0  9991
2 42920  98.2257 199.2635 0010675 216.6983 143.3482 14.50880797460117
SENTINEL-5P             
1 42969U 17064A   26122.80876653  .00000059  00000+0  49065-4 0  9995
2 42969  98.7948  65.2674 0001226  79.5463 280.5851 14.19511151443124
SKYSAT-C11              
1 42987U 17068A   26122.93178943  .00027858  00000+0  40722-3 0  9996
2 42987  97.4301 269.8915 0001481 130.1859 229.9525 15.55598678476209
SKYSAT-C10              
1 42988U 17068B   26122.89823396  .00010088  00000+0  31045-3 0  9996
2 42988  97.4443 259.3497 0001676 104.6829 255.4599 15.33854137475413
SKYSAT-C9               
1 42989U 17068C   26122.91365937  .00013968  00000+0  34642-3 0  9998
2 42989  97.4367 259.8791 0007318 303.3423  56.7122 15.40461951475788
SKYSAT-C8               
1 42990U 17068D   26122.93672691  .00011784  00000+0  33749-3 0  9991
2 42990  97.4459 259.0196 0001267 110.2301 249.9079 15.36084058475365
SKYSAT-C7               
1 42991U 17068E   26122.92863542  .00011787  00000+0  33813-3 0  9993
2 42991  97.4473 259.9982 0004688 265.9238  94.1469 15.36023439475427
SKYSAT-C6               
1 42992U 17068F   26122.94072673  .00010434  00000+0  32287-3 0  9995
2 42992  97.4506 260.1303 0001355 332.4725  27.6445 15.33669996475386
CARTOSAT-2F             
1 43111U 18004A   26122.95944796  .00003791  00000+0  18261-3 0  9999
2 43111  97.4070 183.1073 0002435  88.5299 271.6215 15.19336731460460
GAOFEN-1 02             
1 43259U 18031A   26122.95996611  .00000786  00000+0  12046-3 0  9991
2 43259  98.0555 185.6054 0003881 134.2909 225.8619 14.76455510436020
GAOFEN-1 03             
1 43260U 18031B   26122.93820333  .00000700  00000+0  10812-3 0  9993
2 43260  98.0549 185.4469 0002126 182.9004 177.2193 14.76417072436017
GAOFEN-1 04             
1 43262U 18031D   26122.98142097  .00000424  00000+0  68282-4 0  9992
2 43262  98.0557 185.6754 0000834 113.2098 246.9199 14.76475569436016
SENTINEL-3B             
1 43437U 18039A   26122.95594569  .00000122  00000+0  68352-4 0  9999
2 43437  98.6265 191.1319 0001595  87.6248 272.5115 14.26735814417678
